ARIANE 5 R/B            
1 28499U 04049H   25347.46112703  .00001747  00000+0  19967-3 0  9997
2 28499  98.2521 147.7682 0083317 270.5977  88.5690 14.85015058132992
CZ-2D R/B               
1 28738U 05024B   25347.55947316  .00033494  00000+0  53214-3 0  9990
2 28738  97.3640 355.0276 0005369   3.2850 356.8438 15.53252938126388
ALOS (DAICHI)           
1 28931U 06002A   25347.58062107  .00002061  00000+0  35591-3 0  9995
2 28931  98.1091 299.0622 0001175 116.4026 243.7301 14.69491536 60832
H-2A R/B                
1 28932U 06002B   25347.64423718  .00012307  00000+0  64590-3 0  9997
2 28932  98.2312 122.4664 0054541 173.2045 186.9936 15.14596184 81406
RESURS-DK 1             
1 29228U 06021A   25347.69031880  .00003638  00000+0  21648-3 0  9991
2 29228  69.9333  99.3818 0007151 258.4123 101.6240 15.12168188 74528
CZ-4B R/B               
1 29507U 06046C   25347.62725311  .00005854  00000+0  30515-3 0  9995
2 29507  97.5738  27.7630 0033345 203.3131 156.6592 15.15884590 47001
CZ-2C R/B               
1 31114U 07010B   25347.56413924  .00000242  00000+0  13013-3 0  9991
2 31114  98.3975 100.1735 0059012 183.6092 176.4668 14.20210438967494
COSMO-SKYMED 1          
1 31598U 07023A   25347.65783961  .00005003  00000+0  45383-3 0  9997
2 31598  97.8834 173.0628 0001295  90.4268 269.7101 14.95773595  2047
COSMOS 2428             
1 31792U 07029A   25347.51714568  .00000124  00000+0  92347-4 0  9993
2 31792  70.9368  24.2479 0003708  22.3403 337.7879 14.12889993951921
SL-16 R/B               
1 31793U 07029B   25347.45937713 -.00000012  00000+0  18826-4 0  9993
2 31793  70.9756 353.6451 0002140 262.4107 207.5567 14.14814774953173
KORONAS-FOTON           
1 33504U 09003A   25347.46863055  .00019756  00000+0  47301-3 0  9990
2 33504  82.4315   5.3508 0013295 106.0551 254.2161 15.41215349932458
CZ-2C R/B               
1 37731U 11030B   25347.62837390  .00002160  00000+0  28026-3 0  9994
2 37731  97.8411 301.7153 0051321 270.6276 263.0574 14.80906645777354
H-2A R/B                
1 38341U 12025E   25347.44317735  .00005356  00000+0  49351-3 0  9997
2 38341  98.4603 302.7277 0043668 233.7744 125.9434 14.94463073735336
SHIJIAN-16 (SJ-16)      
1 39358U 13057A   25347.67517880  .00001671  00000+0  16730-3 0  9991
2 39358  74.9736 347.8854 0017627 317.5249  42.4573 14.91987926658672
SL-4 R/B                
1 39679U 14021B   25347.33117436  .00017718  00000+0  41810-3 0  9991
2 39679  51.6090  37.7195 0101641 148.2454 212.4714 15.36694990642982
ALOS-2                  
1 39766U 14029A   25346.54013808  .00004634  00000+0  62702-3 0  9992
2 39766  97.9217  81.3886 0001400  99.6977 260.4393 14.79474197623982
YAOGAN-29               
1 41038U 15069A   25347.69682029  .00001138  00000+0  14713-3 0  9991
2 41038  98.0223  10.8716 0000099 281.8676  78.2526 14.82885115543130
ASTRO-H (HITOMI)        
1 41337U 16012A   25347.68212916  .00004365  00000+0  26079-3 0  9998
2 41337  30.9981 191.2977 0009562 188.6746 171.3727 15.09361801539221
HXMT (HUIYAN)           
1 42758U 17034A   25347.64722775  .00005827  00000+0  30410-3 0  9994
2 42758  43.0128 134.5922 0031399  49.2839 311.0729 15.16255230469475
CZ-2C R/B               
1 43521U 18054D   25347.55903373  .00106224  00000+0  69526-3 0  9994
2 43521  35.1324 175.3428 0015237 152.6006 207.5533 15.74319745415183
SAOCOM 1A               
1 43641U 18076A   25347.61704492  .00001338  00000+0  17457-3 0  9995
2 43641  97.8848 172.0264 0001486  81.1426 278.9955 14.82161232388618
H-2A R/B                
1 43682U 18084L   25347.53860289  .00020944  00000+0  56600-3 0  9994
2 43682  98.8775 181.7831 0027301 323.8059  36.1332 15.37409172392529
SAOCOM 1B               
1 46265U 20059A   25347.64829183  .00000627  00000+0  85310-4 0  9996
2 46265  97.8844 171.1576 0001256  83.0734 277.0622 14.82161672286002
CSS (TIANHE)            
1 48274U 21035A   25347.54735425  .00023242  00000+0  29086-3 0  9992
2 48274  41.4684  11.8051 0008179  37.3165 322.8241 15.59213599264159
COSMOS 2550             
1 48865U 21056A   25346.33480374 -.00000001  00000+0  57847-5 0  9994
2 48865  67.1456 305.1584 0008395 269.9074  90.1118 15.33834191250061
CZ-2C R/B               
1 52794U 22058K   25347.45245621  .00036404  00000+0  64871-3 0  9999
2 52794  50.1910  39.9139 0045300 201.4055 158.5019 15.48556591196743
CZ-2C R/B               
1 54039U 22132E   25347.57191338  .00036506  00000+0  54038-3 0  9991
2 54039  97.2949 343.7866 0022932  54.3931 305.9456 15.54888506176964
GSLV R/B                
1 54149U 22138AN  25347.65838298  .00004125  00000+0  36211-3 0  9996
2 54149  87.3829 195.1665 0024134 102.4535 257.9399 14.96138275171064
XRISM                   
1 57800U 23137A   25347.69335788  .00005673  00000+0  33153-3 0  9994
2 57800  31.0010 119.3858 0007693 255.1038 104.8748 15.10352051124777
ACS3                    
1 59588U 24077B   25347.62057249  .00031700  00000+0  27053-1 0  9999
2 59588  97.2662 303.0305 0077367 336.2616  23.4984 13.85546415 82260
SZ-21 MODULE            
1 66515U 25246C   25347.24231733  .00039667  00000+0  43386-3 0  9995
2 66515  41.4775  12.9802 0006286 263.0797  96.9328 15.62521016  4528
